ONEWEB-0664             
1 55824U 23029AE  26061.67741221  .00000102  00000+0  21973-3 0  9992
2 55824  87.9175 295.7594 0001115  81.8240 278.3020 13.20774931147084
ONEWEB-0665             
1 55825U 23029AF  26061.74571018  .00000134  00000+0  32668-3 0  9994
2 55825  87.8991 310.9680 0001483  91.3543 268.7756 13.14501468145427
ONEWEB-0666             
1 55826U 23029AG  26061.67110200  .00000092  00000+0  19424-3 0  9997
2 55826  87.9172 295.7507 0002166  69.5768 290.5598 13.20772252147093
ONEWEB-0667             
1 55827U 23029AH  26061.66478995  .00000117  00000+0  25573-3 0  9995
2 55827  87.9188 295.6920 0001476  88.4836 271.6467 13.20771637147088
ONEWEB-0669             
1 55828U 23029AJ  26061.66005371  .00000113  00000+0  24523-3 0  9990
2 55828  87.9171 295.7188 0001430  61.0213 299.1064 13.20771501147082
ONEWEB-0670             
1 55829U 23029AK  26061.72350371 -.00000094  00000+0 -28861-3 0  9990
2 55829  87.8991 310.9913 0001225  81.6873 278.4396 13.14502095145449
ONEWEB-0671             
1 55830U 23029AL  26061.76835875  .00000083  00000+0  17503-3 0  9990
2 55830  87.9236 326.1768 0001602  84.5697 275.5618 13.19725666144862
ONEWEB-0672             
1 55831U 23029AM  26061.65531746  .00000074  00000+0  15059-3 0  9993
2 55831  87.9184 295.7054 0001730  74.6081 285.5243 13.20772179147088
ONEWEB-0673             
1 55832U 23029AN  26061.74544839  .00000074  00000+0  15268-3 0  9993
2 55832  87.9242 326.1667 0001590  80.5799 279.5514 13.19726753144861
ONEWEB-0674             
1 55833U 23029AP  26061.76790121  .00000164  00000+0  40792-3 0  9993
2 55833  87.8994 310.9599 0001184  78.5226 281.6036 13.14501184145432
ONEWEB-0675             
1 55834U 23029AQ  26061.76046246  .00000086  00000+0  18169-3 0  9992
2 55834  87.9231 326.1804 0002005  77.9716 282.1641 13.19725442144882
ONEWEB-0720             
1 55835U 23029AR  26061.75257044  .00000151  00000+0  34477-3 0  9995
2 55835  87.9238 326.1820 0001707  91.5388 268.5940 13.19725633144807
ONEWEB-0537             
1 56046U 23043A   26061.95082875 -.00000197  00000+0 -54776-3 0  9992
2 56046  87.8999 249.9062 0001700  88.2117 271.9209 13.16594574144981
ONEWEB-0538             
1 56047U 23043B   26061.94451142  .00000026  00000+0  34453-4 0  9999
2 56047  87.8997 249.9100 0001867  95.4511 264.6833 13.16593406144991
ONEWEB-0546             
1 56048U 23043C   26061.93184537 -.00000038  00000+0 -13309-3 0  9991
2 56048  87.9004 249.9100 0001925  75.9290 284.2055 13.16593318144989
ONEWEB-0547             
1 56049U 23043D   26061.59265645  .00000165  00000+0  36881-3 0  9993
2 56049  87.9168 265.2300 0001709  93.8030 266.3299 13.21823969144148
ONEWEB-0548             
1 56050U 23043E   26061.95638191  .00000067  00000+0  14105-3 0  9991
2 56050  87.8998 249.9048 0001108  94.5930 265.5327 13.16592300144989
