[{"OBJECT_NAME":"ONEWEB-0664","OBJECT_ID":"2023-029AE","EPOCH":"2026-03-02T16:15:28.414944","MEAN_MOTION":13.20774931,"ECCENTRICITY":0.00011152,"INCLINATION":87.9175,"RA_OF_ASC_NODE":295.7594,"ARG_OF_PERICENTER":81.824,"MEAN_ANOMALY":278.302,"EPHEMERIS_TYPE":0,"CLASSIFICATION_TYPE":"U","NORAD_CAT_ID":55824,"ELEMENT_SET_NO":999,"REV_AT_EPOCH":14708,"BSTAR":0.00021973157,"MEAN_MOTION_DOT":1.02e-6,"MEAN_MOTION_DDOT":0},{"OBJECT_NAME":"ONEWEB-0665","OBJECT_ID":"2023-029AF","EPOCH":"2026-03-02T17:53:49.359552","MEAN_MOTION":13.14501468,"ECCENTRICITY":0.00014838,"INCLINATION":87.8991,"RA_OF_ASC_NODE":310.968,"ARG_OF_PERICENTER":91.3543,"MEAN_ANOMALY":268.7756,"EPHEMERIS_TYPE":0,"CLASSIFICATION_TYPE":"U","NORAD_CAT_ID":55825,"ELEMENT_SET_NO":999,"REV_AT_EPOCH":14542,"BSTAR":0.00032668119,"MEAN_MOTION_DOT":1.34e-6,"MEAN_MOTION_DDOT":0},{"OBJECT_NAME":"ONEWEB-0666","OBJECT_ID":"2023-029AG","EPOCH":"2026-03-02T16:06:23.212800","MEAN_MOTION":13.20772252,"ECCENTRICITY":0.00021662,"INCLINATION":87.9172,"RA_OF_ASC_NODE":295.7507,"ARG_OF_PERICENTER":69.5768,"MEAN_ANOMALY":290.5598,"EPHEMERIS_TYPE":0,"CLASSIFICATION_TYPE":"U","NORAD_CAT_ID":55826,"ELEMENT_SET_NO":999,"REV_AT_EPOCH":14709,"BSTAR":0.00019424322,"MEAN_MOTION_DOT":9.2e-7,"MEAN_MOTION_DDOT":0},{"OBJECT_NAME":"ONEWEB-0667","OBJECT_ID":"2023-029AH","EPOCH":"2026-03-02T15:57:17.851680","MEAN_MOTION":13.20771637,"ECCENTRICITY":0.00014766,"INCLINATION":87.9188,"RA_OF_ASC_NODE":295.692,"ARG_OF_PERICENTER":88.4836,"MEAN_ANOMALY":271.6467,"EPHEMERIS_TYPE":0,"CLASSIFICATION_TYPE":"U","NORAD_CAT_ID":55827,"ELEMENT_SET_NO":999,"REV_AT_EPOCH":14708,"BSTAR":0.00025573057,"MEAN_MOTION_DOT":1.17e-6,"MEAN_MOTION_DDOT":0},{"OBJECT_NAME":"ONEWEB-0669","OBJECT_ID":"2023-029AJ","EPOCH":"2026-03-02T15:50:28.640544","MEAN_MOTION":13.20771501,"ECCENTRICITY":0.00014309,"INCLINATION":87.9171,"RA_OF_ASC_NODE":295.7188,"ARG_OF_PERICENTER":61.0213,"MEAN_ANOMALY":299.1064,"EPHEMERIS_TYPE":0,"CLASSIFICATION_TYPE":"U","NORAD_CAT_ID":55828,"ELEMENT_SET_NO":999,"REV_AT_EPOCH":14708,"BSTAR":0.00024523417,"MEAN_MOTION_DOT":1.13e-6,"MEAN_MOTION_DDOT":0},{"OBJECT_NAME":"ONEWEB-0670","OBJECT_ID":"2023-029AK","EPOCH":"2026-03-02T17:21:50.720544","MEAN_MOTION":13.14502095,"ECCENTRICITY":0.0001225,"INCLINATION":87.8991,"RA_OF_ASC_NODE":310.9913,"ARG_OF_PERICENTER":81.6873,"MEAN_ANOMALY":278.4396,"EPHEMERIS_TYPE":0,"CLASSIFICATION_TYPE":"U","NORAD_CAT_ID":55829,"ELEMENT_SET_NO":999,"REV_AT_EPOCH":14544,"BSTAR":-0.00028860866,"MEAN_MOTION_DOT":-9.4e-7,"MEAN_MOTION_DDOT":0},{"OBJECT_NAME":"ONEWEB-0671","OBJECT_ID":"2023-029AL","EPOCH":"2026-03-02T18:26:26.196000","MEAN_MOTION":13.19725666,"ECCENTRICITY":0.0001602,"INCLINATION":87.9236,"RA_OF_ASC_NODE":326.1768,"ARG_OF_PERICENTER":84.5697,"MEAN_ANOMALY":275.5618,"EPHEMERIS_TYPE":0,"CLASSIFICATION_TYPE":"U","NORAD_CAT_ID":55830,"ELEMENT_SET_NO":999,"REV_AT_EPOCH":14486,"BSTAR":0.00017503473,"MEAN_MOTION_DOT":8.3e-7,"MEAN_MOTION_DDOT":0},{"OBJECT_NAME":"ONEWEB-0672","OBJECT_ID":"2023-029AM","EPOCH":"2026-03-02T15:43:39.428544","MEAN_MOTION":13.20772179,"ECCENTRICITY":0.000173,"INCLINATION":87.9184,"RA_OF_ASC_NODE":295.7054,"ARG_OF_PERICENTER":74.6081,"MEAN_ANOMALY":285.5243,"EPHEMERIS_TYPE":0,"CLASSIFICATION_TYPE":"U","NORAD_CAT_ID":55831,"ELEMENT_SET_NO":999,"REV_AT_EPOCH":14708,"BSTAR":0.00015058943,"MEAN_MOTION_DOT":7.4e-7,"MEAN_MOTION_DDOT":0},{"OBJECT_NAME":"ONEWEB-0673","OBJECT_ID":"2023-029AN","EPOCH":"2026-03-02T17:53:26.740896","MEAN_MOTION":13.19726753,"ECCENTRICITY":0.00015905,"INCLINATION":87.9242,"RA_OF_ASC_NODE":326.1667,"ARG_OF_PERICENTER":80.5799,"MEAN_ANOMALY":279.5514,"EPHEMERIS_TYPE":0,"CLASSIFICATION_TYPE":"U","NORAD_CAT_ID":55832,"ELEMENT_SET_NO":999,"REV_AT_EPOCH":14486,"BSTAR":0.00015267984,"MEAN_MOTION_DOT":7.4e-7,"MEAN_MOTION_DDOT":0},{"OBJECT_NAME":"ONEWEB-0674","OBJECT_ID":"2023-029AP","EPOCH":"2026-03-02T18:25:46.664544","MEAN_MOTION":13.14501184,"ECCENTRICITY":0.00011842,"INCLINATION":87.8994,"RA_OF_ASC_NODE":310.9599,"ARG_OF_PERICENTER":78.5226,"MEAN_ANOMALY":281.6036,"EPHEMERIS_TYPE":0,"CLASSIFICATION_TYPE":"U","NORAD_CAT_ID":55833,"ELEMENT_SET_NO":999,"REV_AT_EPOCH":14543,"BSTAR":0.00040792475,"MEAN_MOTION_DOT":1.64e-6,"MEAN_MOTION_DDOT":0},{"OBJECT_NAME":"ONEWEB-0675","OBJECT_ID":"2023-029AQ","EPOCH":"2026-03-02T18:15:03.956544","MEAN_MOTION":13.19725442,"ECCENTRICITY":0.00020056,"INCLINATION":87.9231,"RA_OF_ASC_NODE":326.1804,"ARG_OF_PERICENTER":77.9716,"MEAN_ANOMALY":282.1641,"EPHEMERIS_TYPE":0,"CLASSIFICATION_TYPE":"U","NORAD_CAT_ID":55834,"ELEMENT_SET_NO":999,"REV_AT_EPOCH":14488,"BSTAR":0.00018168811,"MEAN_MOTION_DOT":8.6e-7,"MEAN_MOTION_DDOT":0},{"OBJECT_NAME":"ONEWEB-0720","OBJECT_ID":"2023-029AR","EPOCH":"2026-03-02T18:03:42.086016","MEAN_MOTION":13.19725633,"ECCENTRICITY":0.00017075,"INCLINATION":87.9238,"RA_OF_ASC_NODE":326.182,"ARG_OF_PERICENTER":91.5388,"MEAN_ANOMALY":268.594,"EPHEMERIS_TYPE":0,"CLASSIFICATION_TYPE":"U","NORAD_CAT_ID":55835,"ELEMENT_SET_NO":999,"REV_AT_EPOCH":14480,"BSTAR":0.00034477244,"MEAN_MOTION_DOT":1.51e-6,"MEAN_MOTION_DDOT":0},{"OBJECT_NAME":"ONEWEB-0537","OBJECT_ID":"2023-043A","EPOCH":"2026-03-02T22:49:11.604000","MEAN_MOTION":13.16594574,"ECCENTRICITY":0.00017007,"INCLINATION":87.8999,"RA_OF_ASC_NODE":249.9062,"ARG_OF_PERICENTER":88.2117,"MEAN_ANOMALY":271.9209,"EPHEMERIS_TYPE":0,"CLASSIFICATION_TYPE":"U","NORAD_CAT_ID":56046,"ELEMENT_SET_NO":999,"REV_AT_EPOCH":14498,"BSTAR":-0.00054776125,"MEAN_MOTION_DOT":-1.97e-6,"MEAN_MOTION_DDOT":0},{"OBJECT_NAME":"ONEWEB-0538","OBJECT_ID":"2023-043B","EPOCH":"2026-03-02T22:40:05.786688","MEAN_MOTION":13.16593406,"ECCENTRICITY":0.00018672,"INCLINATION":87.8997,"RA_OF_ASC_NODE":249.91,"ARG_OF_PERICENTER":95.4511,"MEAN_ANOMALY":264.6833,"EPHEMERIS_TYPE":0,"CLASSIFICATION_TYPE":"U","NORAD_CAT_ID":56047,"ELEMENT_SET_NO":999,"REV_AT_EPOCH":14499,"BSTAR":3.4453396e-5,"MEAN_MOTION_DOT":2.6e-7,"MEAN_MOTION_DDOT":0},{"OBJECT_NAME":"ONEWEB-0546","OBJECT_ID":"2023-043C","EPOCH":"2026-03-02T22:21:51.439968","MEAN_MOTION":13.16593318,"ECCENTRICITY":0.00019258,"INCLINATION":87.9004,"RA_OF_ASC_NODE":249.91,"ARG_OF_PERICENTER":75.929,"MEAN_ANOMALY":284.2055,"EPHEMERIS_TYPE":0,"CLASSIFICATION_TYPE":"U","NORAD_CAT_ID":56048,"ELEMENT_SET_NO":999,"REV_AT_EPOCH":14498,"BSTAR":-0.00013308943,"MEAN_MOTION_DOT":-3.8e-7,"MEAN_MOTION_DDOT":0},{"OBJECT_NAME":"ONEWEB-0547","OBJECT_ID":"2023-043D","EPOCH":"2026-03-02T14:13:25.517280","MEAN_MOTION":13.21823969,"ECCENTRICITY":0.0001709,"INCLINATION":87.9168,"RA_OF_ASC_NODE":265.23,"ARG_OF_PERICENTER":93.803,"MEAN_ANOMALY":266.3299,"EPHEMERIS_TYPE":0,"CLASSIFICATION_TYPE":"U","NORAD_CAT_ID":56049,"ELEMENT_SET_NO":999,"REV_AT_EPOCH":14414,"BSTAR":0.00036881,"MEAN_MOTION_DOT":1.65e-6,"MEAN_MOTION_DDOT":0},{"OBJECT_NAME":"ONEWEB-0548","OBJECT_ID":"2023-043E","EPOCH":"2026-03-02T22:57:11.397024","MEAN_MOTION":13.165923,"ECCENTRICITY":0.00011081,"INCLINATION":87.8998,"RA_OF_ASC_NODE":249.9048,"ARG_OF_PERICENTER":94.593,"MEAN_ANOMALY":265.5327,"EPHEMERIS_TYPE":0,"CLASSIFICATION_TYPE":"U","NORAD_CAT_ID":56050,"ELEMENT_SET_NO":999,"REV_AT_EPOCH":14498,"BSTAR":0.00014105356,"MEAN_MOTION_DOT":6.7e-7,"MEAN_MOTION_DDOT":0}]
